{"spkid": "20506491", "covariance": {"epoch": "2458073.5", "labels": ["e", "q", "tp", "node", "peri", "i"], "elements": [{"units": null, "value": ".8384922036100046", "title": "eccentricity", "sigma": 4.2772997432659e-08, "name": "e", "label": "e"}, {"label": "q", "units": "au", "value": ".1889015567339129", "title": "perihelion distance", "sigma": 5.0029804713775e-08, "name": "q"}, {"title": "time of perihelion passage", "value": "2457961.967358064911", "units": "TDB", "name": "tp", "sigma": 2.34616266425428e-05, "label": "tp"}, {"label": "node", "sigma": 0.00012979684669222, "name": "om", "title": "longitude of the ascending node", "value": "196.5866337907967", "units": "deg"}, {"label": "peri", "name": "w", "sigma": 0.000127228843994022, "value": "55.1454807742087", "title": "argument of perihelion", "units": "deg"}, {"label": "i", "sigma": 6.6724268360882e-06, "name": "i", "units": "deg", "title": "inclination", "value": "3.760405239420904"}], "data": [["1.829529309374252E-15", "-2.139871566473229E-15", "-5.705218965808706E-13", "-1.014042356216997E-12", "9.046202576076185E-13", "-7.094473338448949E-14"], ["-2.139871566473229E-15", "2.502981359698468E-15", "6.672055368858306E-13", "1.183882096029907E-12", "-1.05563013259935E-12", "8.317225032141254E-14"], ["-5.705218965808706E-13", "6.672055368858306E-13", "5.504479247140739E-10", "1.286638459034204E-9", "-1.141798026884302E-9", "9.096670291825123E-11"], ["-1.014042356216997E-12", "1.183882096029907E-12", "1.286638459034204E-9", "1.684722141124365E-8", "-1.648900136113483E-8", "5.382938734270006E-10"], ["9.046202576076185E-13", "-1.05563013259935E-12", "-1.141798026884302E-9", "-1.648900136113483E-8", "1.618717874405516E-8", "-5.128850841454696E-10"], ["-7.094473338448949E-14", "8.317225032141254E-14", "9.096670291825123E-11", "5.382938734270006E-10", "-5.128850841454696E-10", "4.452127988295E-11"]]}, "elements": [{"label": "e", "units": null, "title": "eccentricity", "value": ".8384343864364968", "name": "e", "sigma": "4.2733E-8"}, {"label": "a", "units": "au", "value": "1.16963890007379", "title": "semi-major axis", "name": "a", "sigma": "2.5603E-9"}, {"label": "q", "name": "q", "sigma": "5.0028E-8", "title": "perihelion distance", "value": ".1889734265381629", "units": "au"}, {"label": "i", "sigma": "6.6426E-6", "name": "i", "value": "3.755011073772291", "title": "inclination; angle with respect to x-y ecliptic plane", "units": "deg"}, {"units": "deg", "title": "longitude of the ascending node", "value": "196.2927203239848", "sigma": ".00013041", "name": "om", "label": "node"}, {"label": "peri", "units": "deg", "value": "55.45954298704798", "title": "argument of perihelion", "sigma": ".00012784", "name": "w"}, {"title": "mean anomaly", "value": "3.440712630003933", "units": "deg", "name": "ma", "sigma": "1.9649E-5", "label": "M"}, {"label": "tp", "title": "time of perihelion passage", "value": "2461196.084071496362", "units": "TDB", "sigma": "2.521E-5", "name": "tp"}, {"sigma": "1.5171E-6", "name": "per", "units": "d", "value": "462.036337311904", "title": "sidereal orbital period", "label": "period"}, {"units": "deg/d", "value": ".7791594966198017", "title": "mean motion", "sigma": "2.5583E-9", "name": "n", "label": "n"}, {"name": "ad", "sigma": "4.707E-9", "title": "aphelion distance", "value": "2.150304373609417", "units": "au", "label": "Q"}], "epoch": "2461200.5"}